AQUA                    
1 27424U 02022A   26072.92843609  .00001167  00000+0  24260-3 0  9994
2 27424  98.4180  40.3707 0000591  96.8971 327.1426 14.61988253269354
CZ-4B R/B               
1 27432U 02024C   26072.91418185  .00000050  00000+0  48626-4 0  9994
2 27432  98.8830 126.2993 0050278  12.2752 160.4440 14.14548492229834
MIDORI II (ADEOS-II)    
1 27597U 02056A   26072.30393977  .00000377  00000+0  16588-3 0  9998
2 27597  98.7772  30.8065 0001456  38.7795 321.3491 14.29288390210810
H-2A R/B                
1 27601U 02056E   26072.81596676  .00000327  00000+0  12902-3 0  9992
2 27601  98.3207  33.0246 0070747 148.4529 227.3363 14.33763913214703
CZ-4B R/B               
1 28059U 03049C   26072.92219410  .00000442  00000+0  11300-3 0  9992
2 28059  98.6880  67.9930 0047422 217.7404 142.0463 14.55024700187210
CZ-2C R/B               
1 28222U 04012C   26072.12645194  .00059904  00000+0  60765-3 0  9995
2 28222  97.7223 137.7453 0012933 295.2646  64.7272 15.64944388204815
SL-16 R/B               
1 28353U 04021B   26072.41691379 -.00000281  00000+0 -12159-3 0  9998
2 28353  70.9996 224.6701 0004293   3.8877 356.2278 14.14596418123367
CZ-4B R/B               
1 28415U 04035C   26072.83560710  .00009485  00000+0  33329-3 0  9997
2 28415  97.3501 107.0287 0030585 316.1574  43.7238 15.29142114180545
CZ-2C R/B               
1 28480U 04046B   26072.76281790  .00000147  00000+0  69492-4 0  9998
2 28480  98.1981 347.4933 0140100 142.4411 218.6658 14.26993658109083
ARIANE 5 R/B            
1 28499U 04049H   26072.94421428  .00000857  00000+0  10094-3 0  9996
2 28499  98.2633 241.5606 0083636 338.0937  21.6708 14.85274516146422
CZ-2D R/B               
1 28738U 05024B   26072.94199269  .00048547  00000+0  58700-3 0  9995
2 28738  97.3594  88.2454 0005157  35.8223 324.3379 15.60554268140445
ALOS (DAICHI)           
1 28931U 06002A   26072.31521966  .00001674  00000+0  28852-3 0  9996
2 28931  98.1221  28.2525 0000810  63.5750 296.5539 14.69823673 74017
